{
    "links": {
        "self": "http://www.neowsapp.com/rest/v1/neo/3843401?api_key=iIulBulltgU6a56xZRHN4H3l9WmuAYTsLGpBGhQ2"
    },
    "id": "3843401",
    "neo_reference_id": "3843401",
    "name": "(2019 OC3)",
    "designation": "2019 OC3",
    "nasa_jpl_url": "http://ssd.jpl.nasa.gov/sbdb.cgi?sstr=3843401",
    "absolute_magnitude_h": 26.1,
    "estimated_diameter": {
        "kilometers": {
            "estimated_diameter_min": 0.0160160338,
            "estimated_diameter_max": 0.0358129403
        },
        "meters": {
            "estimated_diameter_min": 16.0160337979,
            "estimated_diameter_max": 35.8129403019
        },
        "miles": {
            "estimated_diameter_min": 0.0099518989,
            "estimated_diameter_max": 0.0222531225
        },
        "feet": {
            "estimated_diameter_min": 52.5460443254,
            "estimated_diameter_max": 117.4965270602
        }
    },
    "is_potentially_hazardous_asteroid": false,
    "close_approach_data": [
        {
            "close_approach_date": "2019-07-25",
            "close_approach_date_full": "2019-Jul-25 10:19",
            "epoch_date_close_approach": 1564049940000,
            "relative_velocity": {
                "kilometers_per_second": "7.9682464754",
                "kilometers_per_hour": "28685.6873113888",
                "miles_per_hour": "17824.1705407905"
            },
            "miss_distance": {
                "astronomical": "0.0227589898",
                "lunar": "8.8532470322",
                "kilometers": "3404696.397431726",
                "miles": "2115580.2406047788"
            },
            "orbiting_body": "Earth"
        }
    ],
    "orbital_data": {
        "orbit_id": "1",
        "orbit_determination_date": "2019-07-30 08:42:06",
        "first_observation_date": "2019-07-28",
        "last_observation_date": "2019-07-30",
        "data_arc_in_days": 2,
        "observations_used": 12,
        "orbit_uncertainty": "8",
        "minimum_orbit_intersection": ".0215488",
        "jupiter_tisserand_invariant": "3.847",
        "epoch_osculation": "2458693.5",
        "eccentricity": ".4472272485165817",
        "semi_major_axis": "1.864913347148989",
        "inclination": "9.237696350264919",
        "ascending_node_longitude": "126.189955734914",
        "orbital_period": "930.2215848838886",
        "perihelion_distance": "1.030873282181698",
        "perihelion_argument": "167.2580672626035",
        "aphelion_distance": "2.69895341211628",
        "perihelion_time": "2458682.161728921606",
        "mean_anomaly": "4.387962668842319",
        "mean_motion": ".3870045652025325",
        "equinox": "J2000",
        "orbit_class": {
            "orbit_class_type": "AMO",
            "orbit_class_description": "Near-Earth asteroid orbits similar to that of 1221 Amor",
            "orbit_class_range": "1.017 AU < q (perihelion) < 1.3 AU"
        }
    },
    "is_sentry_object": false
}